start=new Date('2021-09-03T00:00:00.000Z').valueOf();
sats=[{"ECCENTRICITY":"0.00007490","OBJECT_ID":"2021-012AU","GP_ID":"183987774","RCS_SIZE":"LARGE","REV_AT_EPOCH":"357","LAUNCH_DATE":"2021-02-16","TIME_SYSTEM":"UTC","APOAPSIS":"547.782","PERIAPSIS":"546.745","CLASSIFICATION_TYPE":"U","SEMIMAJOR_AXIS":"6925.399","MEAN_ANOMALY":"10.5437","EPOCH":"2021-09-03T00:00:02.000160","EPHEMERIS_TYPE":"0","DECAY_DATE":null,"CENTER_NAME":"EARTH","ELEMENT_SET_NO":"999","MEAN_ELEMENT_THEORY":"SGP4","NORAD_CAT_ID":"47662","TLE_LINE1":"1 47662U 21012AU  21246.00002315  .00024065  00000-0  16297-2 0  9991","SITE":"AFETR","REF_FRAME":"TEME","MEAN_MOTION_DDOT":"0.0000000000000","OBJECT_TYPE":"PAYLOAD","TLE_LINE2":"2 47662  53.0546 252.8703 0000749  62.3438  10.5437 15.06383656  3571","INCLINATION":"53.0546","ARG_OF_PERICENTER":"62.3438","FILE":"3107724","BSTAR":"0.00162970000000","RA_OF_ASC_NODE":"252.8703","OBJECT_NAME":"STARLINK-2052","COUNTRY_CODE":"US","MEAN_MOTION_DOT":"0.00024065","MEAN_MOTION":"15.06383656","PERIOD":"95.593"},{"DECAY_DATE":null,"EPHEMERIS_TYPE":"0","EPOCH":"2021-09-03T00:00:02.000160","MEAN_ANOMALY":"95.3260","ELEMENT_SET_NO":"999","CENTER_NAME":"EARTH","SEMIMAJOR_AXIS":"6727.833","PERIAPSIS":"346.980","APOAPSIS":"352.416","CLASSIFICATION_TYPE":"U","TIME_SYSTEM":"UTC","GP_ID":"183988024","REV_AT_EPOCH":"367","RCS_SIZE":"LARGE","OBJECT_ID":"2021-012AV","ECCENTRICITY":"0.00040400","LAUNCH_DATE":"2021-02-16","PERIOD":"91.532","MEAN_MOTION":"15.73221725","MEAN_MOTION_DOT":"-0.00001917","RA_OF_ASC_NODE":"193.0797","COUNTRY_CODE":"US","OBJECT_NAME":"STARLINK-2053","REF_FRAME":"TEME","MEAN_MOTION_DDOT":"0.0000000000000","FILE":"3107724","ARG_OF_PERICENTER":"2.1740","BSTAR":"-0.00000918980000","INCLINATION":"53.0423","TLE_LINE2":"2 47663  53.0423 193.0797 0004040   2.1740  95.3260 15.73221725  3679","OBJECT_TYPE":"PAYLOAD","TLE_LINE1":"1 47663U 21012AV  21246.00002315 -.00001917  00000-0 -91898-5 0  9998","NORAD_CAT_ID":"47663","MEAN_ELEMENT_THEORY":"SGP4","SITE":"AFETR"},{"ELEMENT_SET_NO":"999","CENTER_NAME":"EARTH","DECAY_DATE":null,"EPHEMERIS_TYPE":"0","MEAN_ANOMALY":"14.5493","EPOCH":"2021-09-03T00:00:02.000160","PERIAPSIS":"546.907","CLASSIFICATION_TYPE":"U","APOAPSIS":"547.609","SEMIMAJOR_AXIS":"6925.393","TIME_SYSTEM":"UTC","LAUNCH_DATE":"2021-02-16","RCS_SIZE":"LARGE","GP_ID":"183989276","OBJECT_ID":"2021-012AW","REV_AT_EPOCH":"357","ECCENTRICITY":"0.00005070","MEAN_MOTION":"15.06385445","PERIOD":"95.593","MEAN_MOTION_DOT":"0.00024244","COUNTRY_CODE":"US","OBJECT_NAME":"STARLINK-2054","RA_OF_ASC_NODE":"252.8773","FILE":"3107724","ARG_OF_PERICENTER":"53.2290","BSTAR":"0.00164150000000","TLE_LINE2":"2 47664  53.0544 252.8773 0000507  53.2290  14.5493 15.06385445  3579","OBJECT_TYPE":"PAYLOAD","INCLINATION":"53.0544","MEAN_MOTION_DDOT":"0.0000000000000","REF_FRAME":"TEME","SITE":"AFETR","TLE_LINE1":"1 47664U 21012AW  21246.00002315  .00024244  00000-0  16415-2 0  9994","NORAD_CAT_ID":"47664","MEAN_ELEMENT_THEORY":"SGP4"},{"LAUNCH_DATE":"2021-02-16","OBJECT_ID":"2021-012AX","GP_ID":"183989026","RCS_SIZE":"LARGE","REV_AT_EPOCH":"358","ECCENTRICITY":"0.00069210","ELEMENT_SET_NO":"999","CENTER_NAME":"EARTH","EPHEMERIS_TYPE":"0","DECAY_DATE":null,"MEAN_ANOMALY":"50.9624","EPOCH":"2021-09-03T00:00:02.000160","APOAPSIS":"552.071","PERIAPSIS":"542.485","CLASSIFICATION_TYPE":"U","SEMIMAJOR_AXIS":"6925.413","TIME_SYSTEM":"UTC","FILE":"3107724","ARG_OF_PERICENTER":"149.5695","BSTAR":"0.00105390000000","INCLINATION":"53.0465","TLE_LINE2":"2 47665  53.0465 247.8946 0006921 149.5695  50.9624 15.06379096  3588","OBJECT_TYPE":"PAYLOAD","REF_FRAME":"TEME","MEAN_MOTION_DDOT":"0.0000000000000","SITE":"AFETR","TLE_LINE1":"1 47665U 21012AX  21246.00002315  .00015448  00000-0  10539-2 0  9992","NORAD_CAT_ID":"47665","MEAN_ELEMENT_THEORY":"SGP4","MEAN_MOTION":"15.06379096","PERIOD":"95.593","MEAN_MOTION_DOT":"0.00015448","COUNTRY_CODE":"US","OBJECT_NAME":"STARLINK-2056","RA_OF_ASC_NODE":"247.8946"},{"SITE":"AFETR","NORAD_CAT_ID":"47666","TLE_LINE1":"1 47666U 21012AY  21245.91668981  .00039806  00000-0  26780-2 0  9998","MEAN_ELEMENT_THEORY":"SGP4","FILE":"3107724","ARG_OF_PERICENTER":"210.5332","BSTAR":"0.00267800000000","TLE_LINE2":"2 47666  53.0524 248.2381 0000237 210.5332  77.7516 15.06374374  3563","INCLINATION":"53.0524","OBJECT_TYPE":"PAYLOAD","MEAN_MOTION_DDOT":"0.0000000000000","REF_FRAME":"TEME","OBJECT_NAME":"STARLINK-2057","COUNTRY_CODE":"US","RA_OF_ASC_NODE":"248.2381","PERIOD":"95.594","MEAN_MOTION":"15.06374374","MEAN_MOTION_DOT":"0.00039806","LAUNCH_DATE":"2021-02-16","ECCENTRICITY":"0.00002370","RCS_SIZE":"LARGE","GP_ID":"183988275","OBJECT_ID":"2021-012AY","REV_AT_EPOCH":"356","TIME_SYSTEM":"UTC","APOAPSIS":"547.456","PERIAPSIS":"547.128","CLASSIFICATION_TYPE":"U","SEMIMAJOR_AXIS":"6925.427","ELEMENT_SET_NO":"999","CENTER_NAME":"EARTH","EPHEMERIS_TYPE":"0","DECAY_DATE":null,"EPOCH":"2021-09-02T22:00:01.999584","MEAN_ANOMALY":"77.7516"},{"LAUNCH_DATE":"2021-02-16","GP_ID":"183988525","OBJECT_ID":"2021-012AZ","RCS_SIZE":"LARGE","REV_AT_EPOCH":"357","ECCENTRICITY":"0.00006800","ELEMENT_SET_NO":"999","CENTER_NAME":"EARTH","DECAY_DATE":null,"EPHEMERIS_TYPE":"0","MEAN_ANOMALY":"78.4748","EPOCH":"2021-09-02T22:00:01.999584","APOAPSIS":"547.727","PERIAPSIS":"546.785","CLASSIFICATION_TYPE":"U","SEMIMAJOR_AXIS":"6925.391","TIME_SYSTEM":"UTC","ARG_OF_PERICENTER":"87.2368","FILE":"3107724","BSTAR":"0.00226490000000","TLE_LINE2":"2 47667  53.0552 273.2452 0000680  87.2368  78.4748 15.06386097  3573","INCLINATION":"53.0552","OBJECT_TYPE":"PAYLOAD","MEAN_MOTION_DDOT":"0.0000000000000","REF_FRAME":"TEME","SITE":"AFETR","TLE_LINE1":"1 47667U 21012AZ  21245.91668981  .00033603  00000-0  22649-2 0  9998","NORAD_CAT_ID":"47667","MEAN_ELEMENT_THEORY":"SGP4","MEAN_MOTION":"15.06386097","PERIOD":"95.593","MEAN_MOTION_DOT":"0.00033603","COUNTRY_CODE":"US","OBJECT_NAME":"STARLINK-2058","RA_OF_ASC_NODE":"273.2452"},{"NORAD_CAT_ID":"47668","TLE_LINE1":"1 47668U 21012BA  21245.91668981  .00042119  00000-0  28329-2 0  9992","MEAN_ELEMENT_THEORY":"SGP4","SITE":"AFETR","MEAN_MOTION_DDOT":"0.0000000000000","REF_FRAME":"TEME","BSTAR":"0.00283290000000","FILE":"3107724","ARG_OF_PERICENTER":"57.7039","OBJECT_TYPE":"PAYLOAD","TLE_LINE2":"2 47668  53.0533 253.2592 0000873  57.7039 238.0532 15.06357699  3567","INCLINATION":"53.0533","RA_OF_ASC_NODE":"253.2592","OBJECT_NAME":"STARLINK-2059","COUNTRY_CODE":"US","MEAN_MOTION":"15.06357699","PERIOD":"95.595","MEAN_MOTION_DOT":"0.00042119","ECCENTRICITY":"0.00008730","GP_ID":"183988776","OBJECT_ID":"2021-012BA","RCS_SIZE":"LARGE","REV_AT_EPOCH":"356","LAUNCH_DATE":"2021-02-16","TIME_SYSTEM":"UTC","APOAPSIS":"547.948","PERIAPSIS":"546.739","SEMIMAJOR_AXIS":"6925.478","CLASSIFICATION_TYPE":"U","DECAY_DATE":null,"EPHEMERIS_TYPE":"0","MEAN_ANOMALY":"238.0532","EPOCH":"2021-09-02T22:00:01.999584","ELEMENT_SET_NO":"999","CENTER_NAME":"EARTH"},{"MEAN_MOTION_DOT":"0.00019072","PERIOD":"91.532","MEAN_MOTION":"15.73216192","RA_OF_ASC_NODE":"193.4893","COUNTRY_CODE":"US","OBJECT_NAME":"STARLINK-2060","REF_FRAME":"TEME","MEAN_MOTION_DDOT":"0.0000000000000","TLE_LINE2":"2 47669  53.0423 193.4893 0004011   4.2890 341.5990 15.73216192  3671","OBJECT_TYPE":"PAYLOAD","INCLINATION":"53.0423","FILE":"3107724","BSTAR":"0.00013985000000","ARG_OF_PERICENTER":"4.2890","MEAN_ELEMENT_THEORY":"SGP4","TLE_LINE1":"1 47669U 21012BB  21245.91668981  .00019072  00000-0  13985-3 0  9998","NORAD_CAT_ID":"47669","SITE":"AFETR","MEAN_ANOMALY":"341.5990","EPOCH":"2021-09-02T22:00:01.999584","DECAY_DATE":null,"EPHEMERIS_TYPE":"0","CENTER_NAME":"EARTH","ELEMENT_SET_NO":"999","SEMIMAJOR_AXIS":"6727.849","PERIAPSIS":"347.015","APOAPSIS":"352.413","CLASSIFICATION_TYPE":"U","TIME_SYSTEM":"UTC","GP_ID":"183989527","RCS_SIZE":"MEDIUM","REV_AT_EPOCH":"367","OBJECT_ID":"2021-012BB","ECCENTRICITY":"0.00040110","LAUNCH_DATE":"2021-02-16"},{"REF_FRAME":"TEME","MEAN_MOTION_DDOT":"0.0000000000000","TLE_LINE2":"2 47670  53.0499 253.2464 0007991 178.4831  37.1823 15.06375024 31247","INCLINATION":"53.0499","OBJECT_TYPE":"PAYLOAD","FILE":"3107582","BSTAR":"0.00239880000000","ARG_OF_PERICENTER":"178.4831","MEAN_ELEMENT_THEORY":"SGP4","TLE_LINE1":"1 47670U 21012BC  21245.91668981  .00035627  00000-0  23988-2 0  9997","NORAD_CAT_ID":"47670","SITE":"AFETR","MEAN_MOTION_DOT":"0.00035627","PERIOD":"95.594","MEAN_MOTION":"15.06375024","RA_OF_ASC_NODE":"253.2464","COUNTRY_CODE":"US","OBJECT_NAME":"STARLINK-2062","RCS_SIZE":"LARGE","GP_ID":"183964042","REV_AT_EPOCH":"3124","OBJECT_ID":"2021-012BC","ECCENTRICITY":"0.00079910","LAUNCH_DATE":"2021-02-16","MEAN_ANOMALY":"37.1823","EPOCH":"2021-09-02T22:00:01.999584","EPHEMERIS_TYPE":"0","DECAY_DATE":null,"CENTER_NAME":"EARTH","ELEMENT_SET_NO":"999","PERIAPSIS":"541.756","SEMIMAJOR_AXIS":"6925.425","APOAPSIS":"552.824","CLASSIFICATION_TYPE":"U","TIME_SYSTEM":"UTC"},{"PERIOD":"95.594","MEAN_MOTION":"15.06365080","MEAN_MOTION_DOT":"0.00043530","RA_OF_ASC_NODE":"253.2544","OBJECT_NAME":"STARLINK-2064","COUNTRY_CODE":"US","REF_FRAME":"TEME","MEAN_MOTION_DDOT":"0.0000000000000","ARG_OF_PERICENTER":"65.0432","FILE":"3107724","BSTAR":"0.00292600000000","INCLINATION":"53.0529","TLE_LINE2":"2 47671  53.0529 253.2544 0000746  65.0432 250.6739 15.06365080  3563","OBJECT_TYPE":"PAYLOAD","NORAD_CAT_ID":"47671","TLE_LINE1":"1 47671U 21012BD  21245.91668981  .00043530  00000-0  29260-2 0  9999","MEAN_ELEMENT_THEORY":"SGP4","SITE":"AFETR","EPHEMERIS_TYPE":"0","DECAY_DATE":null,"MEAN_ANOMALY":"250.6739","EPOCH":"2021-09-02T22:00:01.999584","ELEMENT_SET_NO":"999","CENTER_NAME":"EARTH","TIME_SYSTEM":"UTC","PERIAPSIS":"546.804","CLASSIFICATION_TYPE":"U","APOAPSIS":"547.837","SEMIMAJOR_AXIS":"6925.456","ECCENTRICITY":"0.00007460","OBJECT_ID":"2021-012BD","GP_ID":"183988025","RCS_SIZE":"LARGE","REV_AT_EPOCH":"356","LAUNCH_DATE":"2021-02-16"}];
